[{"OBJECT_NAME":"STARLINK-3260","OBJECT_ID":"2021-125BB","EPOCH":"2026-01-11T13:43:07.472928","MEAN_MOTION":15.08847088,"ECCENTRICITY":0.00012644,"INCLINATION":53.2178,"RA_OF_ASC_NODE":105.5347,"ARG_OF_PERICENTER":92.5565,"MEAN_ANOMALY":267.5572,"EPHEMERIS_TYPE":0,"CLASSIFICATION_TYPE":"U","NORAD_CAT_ID":50205,"ELEMENT_SET_NO":999,"REV_AT_EPOCH":22853,"BSTAR":0.00014381874,"MEAN_MOTION_DOT":2.002e-5,"MEAN_MOTION_DDOT":0},{"OBJECT_NAME":"STARLINK-3258","OBJECT_ID":"2021-125BC","EPOCH":"2026-01-11T13:23:14.203392","MEAN_MOTION":15.08845309,"ECCENTRICITY":0.00013061,"INCLINATION":53.2178,"RA_OF_ASC_NODE":135.4914,"ARG_OF_PERICENTER":88.018,"MEAN_ANOMALY":272.0962,"EPHEMERIS_TYPE":0,"CLASSIFICATION_TYPE":"U","NORAD_CAT_ID":50206,"ELEMENT_SET_NO":999,"REV_AT_EPOCH":22603,"BSTAR":7.8122512e-5,"MEAN_MOTION_DOT":9.56e-6,"MEAN_MOTION_DDOT":0},{"OBJECT_NAME":"STARLINK-3262","OBJECT_ID":"2021-125BD","EPOCH":"2026-01-11T16:00:00.999936","MEAN_MOTION":15.31793073,"ECCENTRICITY":0.00014442,"INCLINATION":53.2208,"RA_OF_ASC_NODE":134.1655,"ARG_OF_PERICENTER":65.4092,"MEAN_ANOMALY":219.429,"EPHEMERIS_TYPE":0,"CLASSIFICATION_TYPE":"U","NORAD_CAT_ID":50207,"ELEMENT_SET_NO":999,"REV_AT_EPOCH":565,"BSTAR":0.033155846,"MEAN_MOTION_DOT":0.01115628,"MEAN_MOTION_DDOT":0},{"OBJECT_NAME":"STARLINK-3323","OBJECT_ID":"2022-001B","EPOCH":"2026-01-11T09:23:25.101600","MEAN_MOTION":15.08844139,"ECCENTRICITY":0.00014632,"INCLINATION":53.2185,"RA_OF_ASC_NODE":56.345,"ARG_OF_PERICENTER":86.1802,"MEAN_ANOMALY":273.9357,"EPHEMERIS_TYPE":0,"CLASSIFICATION_TYPE":"U","NORAD_CAT_ID":50804,"ELEMENT_SET_NO":999,"REV_AT_EPOCH":22189,"BSTAR":4.4463746e-5,"MEAN_MOTION_DOT":4.2e-6,"MEAN_MOTION_DDOT":0},{"OBJECT_NAME":"STARLINK-3333","OBJECT_ID":"2022-001C","EPOCH":"2026-01-11T12:28:53.390496","MEAN_MOTION":15.08845956,"ECCENTRICITY":0.00015097,"INCLINATION":53.2189,"RA_OF_ASC_NODE":55.7656,"ARG_OF_PERICENTER":88.4758,"MEAN_ANOMALY":271.6407,"EPHEMERIS_TYPE":0,"CLASSIFICATION_TYPE":"U","NORAD_CAT_ID":50805,"ELEMENT_SET_NO":999,"REV_AT_EPOCH":22191,"BSTAR":3.8161564e-5,"MEAN_MOTION_DOT":3.19e-6,"MEAN_MOTION_DDOT":0},{"OBJECT_NAME":"STARLINK-3335","OBJECT_ID":"2022-001D","EPOCH":"2026-01-11T09:12:48.750912","MEAN_MOTION":15.08846959,"ECCENTRICITY":0.0001452,"INCLINATION":53.2186,"RA_OF_ASC_NODE":56.3771,"ARG_OF_PERICENTER":88.6191,"MEAN_ANOMALY":271.4967,"EPHEMERIS_TYPE":0,"CLASSIFICATION_TYPE":"U","NORAD_CAT_ID":50806,"ELEMENT_SET_NO":999,"REV_AT_EPOCH":22189,"BSTAR":9.9594858e-5,"MEAN_MOTION_DOT":1.298e-5,"MEAN_MOTION_DDOT":0},{"OBJECT_NAME":"STARLINK-3355","OBJECT_ID":"2022-001F","EPOCH":"2026-01-11T12:12:59.726304","MEAN_MOTION":15.08843876,"ECCENTRICITY":0.00013052,"INCLINATION":53.2194,"RA_OF_ASC_NODE":55.8148,"ARG_OF_PERICENTER":84.3824,"MEAN_ANOMALY":275.7317,"EPHEMERIS_TYPE":0,"CLASSIFICATION_TYPE":"U","NORAD_CAT_ID":50808,"ELEMENT_SET_NO":999,"REV_AT_EPOCH":22191,"BSTAR":8.0972165e-5,"MEAN_MOTION_DOT":1.001e-5,"MEAN_MOTION_DDOT":0},{"OBJECT_NAME":"STARLINK-3232","OBJECT_ID":"2022-001G","EPOCH":"2026-01-11T12:18:17.095104","MEAN_MOTION":15.08847149,"ECCENTRICITY":0.00014015,"INCLINATION":53.219,"RA_OF_ASC_NODE":55.7991,"ARG_OF_PERICENTER":82.4968,"MEAN_ANOMALY":277.6183,"EPHEMERIS_TYPE":0,"CLASSIFICATION_TYPE":"U","NORAD_CAT_ID":50809,"ELEMENT_SET_NO":999,"REV_AT_EPOCH":22191,"BSTAR":0.00012099867,"MEAN_MOTION_DOT":1.639e-5,"MEAN_MOTION_DDOT":0},{"OBJECT_NAME":"STARLINK-3338","OBJECT_ID":"2022-001K","EPOCH":"2026-01-11T09:44:38.082048","MEAN_MOTION":15.08842899,"ECCENTRICITY":0.00015315,"INCLINATION":53.2196,"RA_OF_ASC_NODE":56.3835,"ARG_OF_PERICENTER":91.4259,"MEAN_ANOMALY":268.6909,"EPHEMERIS_TYPE":0,"CLASSIFICATION_TYPE":"U","NORAD_CAT_ID":50812,"ELEMENT_SET_NO":999,"REV_AT_EPOCH":22189,"BSTAR":4.6876928e-5,"MEAN_MOTION_DOT":4.58e-6,"MEAN_MOTION_DDOT":0},{"OBJECT_NAME":"STARLINK-3349","OBJECT_ID":"2022-001L","EPOCH":"2026-01-11T10:12:32.945184","MEAN_MOTION":15.30324682,"ECCENTRICITY":0.00046087,"INCLINATION":53.2112,"RA_OF_ASC_NODE":30.2813,"ARG_OF_PERICENTER":111.8694,"MEAN_ANOMALY":248.2798,"EPHEMERIS_TYPE":0,"CLASSIFICATION_TYPE":"U","NORAD_CAT_ID":50813,"ELEMENT_SET_NO":999,"REV_AT_EPOCH":22227,"BSTAR":0.0018879662,"MEAN_MOTION_DOT":0.00056208,"MEAN_MOTION_DDOT":0},{"OBJECT_NAME":"STARLINK-3324","OBJECT_ID":"2022-001M","EPOCH":"2026-01-11T12:59:21.831360","MEAN_MOTION":15.08834701,"ECCENTRICITY":0.00012256,"INCLINATION":53.2187,"RA_OF_ASC_NODE":65.6709,"ARG_OF_PERICENTER":93.3715,"MEAN_ANOMALY":266.7417,"EPHEMERIS_TYPE":0,"CLASSIFICATION_TYPE":"U","NORAD_CAT_ID":50814,"ELEMENT_SET_NO":999,"REV_AT_EPOCH":22178,"BSTAR":-5.637e-5,"MEAN_MOTION_DOT":-1.185e-5,"MEAN_MOTION_DDOT":0},{"OBJECT_NAME":"STARLINK-3234","OBJECT_ID":"2022-001N","EPOCH":"2026-01-11T10:04:29.066304","MEAN_MOTION":15.08842131,"ECCENTRICITY":0.0001314,"INCLINATION":53.2181,"RA_OF_ASC_NODE":66.216,"ARG_OF_PERICENTER":91.9633,"MEAN_ANOMALY":268.151,"EPHEMERIS_TYPE":0,"CLASSIFICATION_TYPE":"U","NORAD_CAT_ID":50815,"ELEMENT_SET_NO":999,"REV_AT_EPOCH":22176,"BSTAR":6.9401804e-5,"MEAN_MOTION_DOT":8.17e-6,"MEAN_MOTION_DDOT":0},{"OBJECT_NAME":"STARLINK-3342","OBJECT_ID":"2022-001P","EPOCH":"2026-01-11T13:33:26.928000","MEAN_MOTION":15.10770126,"ECCENTRICITY":0.00030691,"INCLINATION":53.2168,"RA_OF_ASC_NODE":65.3063,"ARG_OF_PERICENTER":30.6077,"MEAN_ANOMALY":329.5094,"EPHEMERIS_TYPE":0,"CLASSIFICATION_TYPE":"U","NORAD_CAT_ID":50816,"ELEMENT_SET_NO":999,"REV_AT_EPOCH":22178,"BSTAR":0.0012288905,"MEAN_MOTION_DOT":0.00020392,"MEAN_MOTION_DDOT":0},{"OBJECT_NAME":"STARLINK-3341","OBJECT_ID":"2022-001Q","EPOCH":"2026-01-11T13:09:57.362976","MEAN_MOTION":15.08844936,"ECCENTRICITY":0.00013199,"INCLINATION":53.2183,"RA_OF_ASC_NODE":65.6369,"ARG_OF_PERICENTER":92.8045,"MEAN_ANOMALY":267.3098,"EPHEMERIS_TYPE":0,"CLASSIFICATION_TYPE":"U","NORAD_CAT_ID":50817,"ELEMENT_SET_NO":999,"REV_AT_EPOCH":22178,"BSTAR":0.0001028196,"MEAN_MOTION_DOT":1.349e-5,"MEAN_MOTION_DDOT":0},{"OBJECT_NAME":"STARLINK-3336","OBJECT_ID":"2022-001R","EPOCH":"2026-01-11T11:08:04.497216","MEAN_MOTION":15.08845548,"ECCENTRICITY":0.00013655,"INCLINATION":53.2187,"RA_OF_ASC_NODE":66.0183,"ARG_OF_PERICENTER":91.1176,"MEAN_ANOMALY":268.9973,"EPHEMERIS_TYPE":0,"CLASSIFICATION_TYPE":"U","NORAD_CAT_ID":50818,"ELEMENT_SET_NO":999,"REV_AT_EPOCH":22176,"BSTAR":9.8277275e-5,"MEAN_MOTION_DOT":1.277e-5,"MEAN_MOTION_DDOT":0},{"OBJECT_NAME":"STARLINK-3327","OBJECT_ID":"2022-001S","EPOCH":"2026-01-11T11:18:40.447008","MEAN_MOTION":15.08846528,"ECCENTRICITY":0.00013858,"INCLINATION":53.2192,"RA_OF_ASC_NODE":65.9853,"ARG_OF_PERICENTER":80.1956,"MEAN_ANOMALY":279.9192,"EPHEMERIS_TYPE":0,"CLASSIFICATION_TYPE":"U","NORAD_CAT_ID":50819,"ELEMENT_SET_NO":999,"REV_AT_EPOCH":22177,"BSTAR":0.00012467658,"MEAN_MOTION_DOT":1.697e-5,"MEAN_MOTION_DDOT":0}]
