STARLINK-3260           
1 50205U 21125BB  26011.57161427  .00002002  00000+0  14382-3 0  9990
2 50205  53.2178 105.5347 0001264  92.5565 267.5572 15.08847088228533
STARLINK-3258           
1 50206U 21125BC  26011.55780328  .00000956  00000+0  78123-4 0  9996
2 50206  53.2178 135.4914 0001306  88.0180 272.0962 15.08845309226037
STARLINK-3262           
1 50207U 21125BD  26011.66667824  .01115628  00000+0  33156-1 0  9992
2 50207  53.2208 134.1655 0001444  65.4092 219.4290 15.31793073  5652
STARLINK-3323           
1 50804U 22001B   26011.39126275  .00000420  00000+0  44464-4 0  9998
2 50804  53.2185  56.3450 0001463  86.1802 273.9357 15.08844139221896
STARLINK-3333           
1 50805U 22001C   26011.52006239  .00000319  00000+0  38162-4 0  9996
2 50805  53.2189  55.7656 0001509  88.4758 271.6407 15.08845956221910
STARLINK-3335           
1 50806U 22001D   26011.38389758  .00001298  00000+0  99595-4 0  9995
2 50806  53.2186  56.3771 0001452  88.6191 271.4967 15.08846959221893
STARLINK-3355           
1 50808U 22001F   26011.50902461  .00001001  00000+0  80972-4 0  9994
2 50808  53.2194  55.8148 0001305  84.3824 275.7317 15.08843876221913
STARLINK-3232           
1 50809U 22001G   26011.51269786  .00001639  00000+0  12100-3 0  9996
2 50809  53.2190  55.7991 0001401  82.4968 277.6183 15.08847149221919
STARLINK-3338           
1 50812U 22001K   26011.40599632  .00000458  00000+0  46877-4 0  9991
2 50812  53.2196  56.3835 0001531  91.4259 268.6909 15.08842899221890
STARLINK-3349           
1 50813U 22001L   26011.42538131  .00056208  00000+0  18880-2 0  9996
2 50813  53.2112  30.2813 0004608 111.8694 248.2798 15.30324682222277
STARLINK-3324           
1 50814U 22001M   26011.54122490 -.00001185  00000+0 -56370-4 0  9991
2 50814  53.2187  65.6709 0001225  93.3715 266.7417 15.08834701221787
STARLINK-3234           
1 50815U 22001N   26011.41978086  .00000817  00000+0  69402-4 0  9997
2 50815  53.2181  66.2160 0001314  91.9633 268.1510 15.08842131221766
STARLINK-3342           
1 50816U 22001P   26011.56489500  .00020392  00000+0  12289-2 0  9991
2 50816  53.2168  65.3063 0003069  30.6077 329.5094 15.10770126221783
STARLINK-3341           
1 50817U 22001Q   26011.54858059  .00001349  00000+0  10282-3 0  9992
2 50817  53.2183  65.6369 0001319  92.8045 267.3098 15.08844936221785
STARLINK-3336           
1 50818U 22001R   26011.46394094  .00001277  00000+0  98277-4 0  9999
2 50818  53.2187  66.0183 0001365  91.1176 268.9973 15.08845548221764
STARLINK-3327           
1 50819U 22001S   26011.47130147  .00001697  00000+0  12468-3 0  9991
2 50819  53.2192  65.9853 0001385  80.1956 279.9192 15.08846528221774
